{
  "norad_id": 53926,
  "name": "STARLINK-5014",
  "history": [
    {
      "epoch": "2026-03-28T15:52:15.809376",
      "apogee_km": 535.9949956635,
      "perigee_km": 534.4920267403659,
      "latitude_deg": -1.5130682194073457,
      "longitude_deg": -3.9157673600129783,
      "semi_major_axis_km": 6913.380511201933,
      "eccentricity": 0.0001087,
      "inclination_deg": 53.2178,
      "raan_deg": 223.6334,
      "arg_perigee_deg": 81.2385,
      "mean_anomaly_deg": 278.8731,
      "mean_motion_rev_day": 15.10313382
    },
    {
      "epoch": "2026-03-29T01:24:01.668960",
      "apogee_km": 536.0000497184046,
      "perigee_km": 534.592474706219,
      "latitude_deg": -5.216958779841843,
      "longitude_deg": 34.20185440010391,
      "semi_major_axis_km": 6913.433262212312,
      "eccentricity": 0.0001018,
      "inclination_deg": 53.2183,
      "raan_deg": 221.8469,
      "arg_perigee_deg": 78.1539,
      "mean_anomaly_deg": 281.9568,
      "mean_motion_rev_day": 15.10296096
    }
  ]
}